ONEWEB-0158             
1 48054U 21025N   24189.76362263  .00000070  00000+0  15549-3 0  9993
2 48054  87.8930 101.4175 0002060  80.6515 279.4846 13.13469376160505
ONEWEB-0157             
1 48055U 21025P   24189.78740865 -.00000249  00000+0 -71809-3 0  9995
2 48055  87.8926 101.4274 0001806  81.5868 278.5466 13.13468199160453
ONEWEB-0162             
1 48056U 21025Q   24189.82709887  .00000339  00000+0  89376-3 0  9996
2 48056  87.8927 101.4151 0001946  79.3546 280.7802 13.13468483160402
ONEWEB-0155             
1 48057U 21025R   24190.15244313 -.00000014  00000+0 -73173-4 0  9994
2 48057  87.8928 101.3609 0001794  72.7020 287.4305 13.13470346160612
ONEWEB-0149             
1 48058U 21025S   24189.79217341 -.00000221  00000+0 -64018-3 0  9991
2 48058  87.8927 101.4288 0001957  85.1186 275.0166 13.13468704160374
ONEWEB-0148             
1 48059U 21025T   24189.83345675  .00000234  00000+0  60657-3 0  9996
2 48059  87.8932 101.4316 0001745  97.8377 262.2950 13.13469262160492
ONEWEB-0160             
1 48060U 21025U   24189.84931956 -.00000125  00000+0 -37685-3 0  9998
2 48060  87.8932 101.4244 0002904  76.6880 283.4573 13.13469929160447
ONEWEB-0163             
1 48061U 21025V   24189.75885229  .00000204  00000+0  52356-3 0  9998
2 48061  87.8930 101.4344 0001637  77.8556 282.2756 13.13468611160562
